OBJECT_NAME,OBJECT_ID,EPOCH,MEAN_MOTION,ECCENTRICITY,INCLINATION,RA_OF_ASC_NODE,ARG_OF_PERICENTER,MEAN_ANOMALY,EPHEMERIS_TYPE,CLASSIFICATION_TYPE,NORAD_CAT_ID,ELEMENT_SET_NO,REV_AT_EPOCH,BSTAR,MEAN_MOTION_DOT,MEAN_MOTION_DDOT
STARLINK-30869,2023-183A,2026-06-18T18:41:48.651648,15.27579565,.00014597,43.0027,190.8073,272.1264,87.9421,0,U,58437,999,14219,.76635366E-4,.1847E-4,0
STARLINK-30969,2023-183B,2026-06-18T10:45:29.227680,15.27563156,.0001653,43.0010,192.6260,275.9557,84.1106,0,U,58438,999,14214,.26373E-3,.6998E-4,0
STARLINK-30951,2023-183C,2026-06-18T10:56:34.874880,15.27574713,.0001543,43.0035,192.6852,273.1697,86.8978,0,U,58439,999,14214,.9966E-6,-.235E-5,0
STARLINK-30950,2023-183D,2026-06-18T18:43:46.827840,15.27574820,.00018357,43.0043,354.2205,270.6122,89.4520,0,U,58440,999,14449,.25429632E-4,.437E-5,0
STARLINK-30942,2023-183E,2026-06-18T09:55:31.501920,15.27582344,.0001271,43.0019,192.3672,272.5992,87.4715,0,U,58441,999,14214,-.26269E-4,-.985E-5,0
STARLINK-30959,2023-183F,2026-06-18T18:01:06.378528,15.27578207,.00014612,43.0009,190.5965,276.4059,83.6626,0,U,58442,999,14219,.19675003E-4,.279E-5,0
STARLINK-30971,2023-183G,2026-06-18T09:48:20.372832,15.27568317,.0003322,43.0075,193.1822,285.1879,74.8606,0,U,58443,999,14213,-.14341E-4,-.658E-5,0
STARLINK-30963,2023-183H,2026-06-18T18:06:39.016800,15.27577721,.00011101,43.0005,190.6209,270.7264,89.3460,0,U,58444,999,14219,.11896699E-4,.65E-6,0
STARLINK-30961,2023-183J,2026-06-18T18:12:12.294432,15.27573696,.00012258,43.0005,190.6477,275.4889,84.5823,0,U,58445,999,14219,.19989785E-4,.288E-5,0
STARLINK-30975,2023-183K,2026-06-18T18:10:21.585792,15.27575489,.00009728,42.9997,190.6307,278.5184,81.5557,0,U,58446,999,14221,.8562328E-5,-.26E-6,0
STARLINK-30976,2023-183L,2026-06-18T09:03:55.835712,15.27575950,.0001406,43.0017,192.9822,272.9398,87.1293,0,U,58447,999,14213,.95455E-5,.1E-7,0
STARLINK-30926,2023-183M,2026-06-18T17:49:59.530368,15.27576638,.0001324,43.0014,190.4952,274.3977,85.6723,0,U,58448,999,14219,.1343396E-4,.108E-5,0
STARLINK-30943,2023-183N,2026-06-18T09:26:51.646848,15.27579829,.0001702,43.0020,167.0318,281.8525,78.2135,0,U,58449,999,14243,.61986E-4,.1444E-4,0
STARLINK-30946,2023-183P,2026-06-18T12:14:05.239104,15.27574109,.000111,43.0026,192.2235,268.7692,91.3033,0,U,58450,999,14215,.17414E-4,.217E-5,0
STARLINK-30944,2023-183Q,2026-06-18T18:17:45.350880,15.27571056,.00011476,42.9981,190.6813,269.1978,90.8742,0,U,58451,999,14216,-.70233626E-4,-.2194E-4,0
STARLINK-30928,2023-183R,2026-06-18T18:23:18.598272,15.27593229,.00018175,43.0007,190.7091,280.7420,79.3227,0,U,58452,999,14218,-.11244389E-3,-.3356E-4,0
STARLINK-30957,2023-183S,2026-06-18T18:15:54.586080,15.27576129,.00011743,43.0012,190.6718,275.2228,84.8490,0,U,58453,999,14219,.19771174E-4,.282E-5,0
STARLINK-30966,2023-183T,2026-06-18T18:21:27.436032,15.27576152,.00011423,42.9997,190.6975,274.4216,85.6505,0,U,58454,999,14219,.8083781E-5,-.4E-6,0
STARLINK-30935,2023-183U,2026-06-18T09:37:13.790784,15.27579763,.0002133,43.0053,193.1230,282.5080,77.5533,0,U,58455,999,14213,.13692E-4,.114E-5,0
STARLINK-30958,2023-183W,2026-06-18T10:04:46.259904,15.27575448,.000122,42.9997,192.4118,274.4528,85.6184,0,U,58457,999,14214,-.48672E-5,-.396E-5,0
STARLINK-30962,2023-183X,2026-06-18T11:27:49.620096,15.27591379,.0001992,43.0015,191.9852,275.2127,84.8498,0,U,58458,999,14215,.26719E-4,.473E-5,0
STARLINK-30977,2023-183Y,2026-06-18T11:16:55.941024,15.27573567,.0001808,43.0024,192.7798,284.7818,75.2833,0,U,58459,999,14214,.79735E-4,.1932E-4,0
STARLINK-30947,2023-186A,2026-06-18T20:04:01.484256,15.27579006,.00013085,43.0041,215.9775,267.2139,92.8563,0,U,58473,999,14132,.28062763E-4,.51E-5,0
STARLINK-30941,2023-186C,2026-06-18T20:07:43.641120,15.27576618,.00012067,43.0043,215.9952,269.1735,90.8979,0,U,58475,999,14132,-.6261762E-5,-.434E-5,0
STARLINK-30980,2023-186D,2026-06-18T20:13:16.512672,15.27578043,.00013086,43.0021,216.0202,268.4943,91.5759,0,U,58476,999,14132,.35829819E-3,.961E-4,0
STARLINK-30965,2023-186E,2026-06-18T19:31:26.576256,15.27581361,.00016797,43.0007,201.1053,285.9016,74.1651,0,U,58477,999,14149,.42115182E-4,.897E-5,0
STARLINK-30990,2023-186F,2026-06-18T19:58:28.477920,15.27577378,.00011904,43.0006,215.9453,263.7457,96.3259,0,U,58478,999,14136,.19643848E-4,.279E-5,0
STARLINK-30984,2023-186H,2026-06-18T11:18:26.483040,15.27576430,.0001344,42.9979,214.1203,272.5258,87.5440,0,U,58480,999,14131,.16261E-4,.185E-5,0
STARLINK-30956,2023-186J,2026-06-18T18:52:47.116416,15.27578213,.0001633,43.0039,190.3373,275.4356,84.6310,0,U,58481,999,14161,.24403551E-4,.409E-5,0
STARLINK-30997,2023-186K,2026-06-18T19:57:19.218816,15.27597342,.00023658,43.0024,212.4990,268.8332,91.2248,0,U,58482,999,14136,.38564287E-3,.10371E-3,0
