STARLINK-30869          
1 58437U 23183A   26169.77903532  .00001847  00000+0  76635-4 0  9994
2 58437  43.0027 190.8073 0001459 272.1264  87.9421 15.27579565142196
STARLINK-30969          
1 58438U 23183B   26169.44825495  .00006998  00000+0  26373-3 0  9995
2 58438  43.0010 192.6260 0001653 275.9557  84.1106 15.27563156142142
STARLINK-30951          
1 58439U 23183C   26169.45595920 -.00000235  00000+0  99660-6 0  9995
2 58439  43.0035 192.6852 0001543 273.1697  86.8978 15.27574713142147
STARLINK-30950          
1 58440U 23183D   26169.78040310  .00000437  00000+0  25430-4 0  9996
2 58440  43.0043 354.2205 0001835 270.6122  89.4520 15.27574820144496
STARLINK-30942          
1 58441U 23183E   26169.41355905 -.00000985  00000+0 -26269-4 0  9997
2 58441  43.0019 192.3672 0001271 272.5992  87.4715 15.27582344142143
STARLINK-30959          
1 58442U 23183F   26169.75076827  .00000279  00000+0  19675-4 0  9995
2 58442  43.0009 190.5965 0001461 276.4059  83.6626 15.27578207142193
STARLINK-30971          
1 58443U 23183G   26169.40856913 -.00000658  00000+0 -14341-4 0  9998
2 58443  43.0075 193.1822 0003322 285.1879  74.8606 15.27568317142138
STARLINK-30963          
1 58444U 23183H   26169.75461825  .00000065  00000+0  11897-4 0  9994
2 58444  43.0005 190.6209 0001110 270.7264  89.3460 15.27577721142198
STARLINK-30961          
1 58445U 23183J   26169.75847563  .00000288  00000+0  19990-4 0  9991
2 58445  43.0005 190.6477 0001225 275.4889  84.5823 15.27573696142195
STARLINK-30975          
1 58446U 23183K   26169.75719428 -.00000026  00000+0  85623-5 0  9998
2 58446  42.9997 190.6307 0000972 278.5184  81.5557 15.27575489142212
STARLINK-30976          
1 58447U 23183L   26169.37772958  .00000001  00000+0  95455-5 0  9990
2 58447  43.0017 192.9822 0001406 272.9398  87.1293 15.27575950142136
STARLINK-30926          
1 58448U 23183M   26169.74305012  .00000108  00000+0  13434-4 0  9999
2 58448  43.0014 190.4952 0001324 274.3977  85.6723 15.27576638142190
STARLINK-30943          
1 58449U 23183N   26169.39365332  .00001444  00000+0  61986-4 0  9991
2 58449  43.0020 167.0318 0001702 281.8525  78.2135 15.27579829142433
STARLINK-30946          
1 58450U 23183P   26169.50978286  .00000217  00000+0  17414-4 0  9998
2 58450  43.0026 192.2235 0001110 268.7692  91.3033 15.27574109142159
STARLINK-30944          
1 58451U 23183Q   26169.76233045 -.00002194  00000+0 -70234-4 0  9991
2 58451  42.9981 190.6813 0001147 269.1978  90.8742 15.27571056142164
STARLINK-30928          
1 58452U 23183R   26169.76618748 -.00003356  00000+0 -11244-3 0  9995
2 58452  43.0007 190.7091 0001817 280.7420  79.3227 15.27593229142188
STARLINK-30957          
1 58453U 23183S   26169.76104845  .00000282  00000+0  19771-4 0  9991
2 58453  43.0012 190.6718 0001174 275.2228  84.8490 15.27576129142195
STARLINK-30966          
1 58454U 23183T   26169.76490088 -.00000040  00000+0  80838-5 0  9995
2 58454  42.9997 190.6975 0001142 274.4216  85.6505 15.27576152142196
STARLINK-30935          
1 58455U 23183U   26169.40085406  .00000114  00000+0  13692-4 0  9995
2 58455  43.0053 193.1230 0002133 282.5080  77.5533 15.27579763142130
STARLINK-30958          
1 58457U 23183W   26169.41997986 -.00000396  00000+0 -48672-5 0  9994
2 58457  42.9997 192.4118 0001220 274.4528  85.6184 15.27575448142146
STARLINK-30962          
1 58458U 23183X   26169.47765764  .00000473  00000+0  26719-4 0  9999
2 58458  43.0015 191.9852 0001992 275.2127  84.8498 15.27591379142150
STARLINK-30977          
1 58459U 23183Y   26169.47009191  .00001932  00000+0  79735-4 0  9992
2 58459  43.0024 192.7798 0001808 284.7818  75.2833 15.27573567142142
STARLINK-30947          
1 58473U 23186A   26169.83612829  .00000510  00000+0  28063-4 0  9998
2 58473  43.0041 215.9775 0001308 267.2139  92.8563 15.27579006141325
STARLINK-30941          
1 58475U 23186C   26169.83869955 -.00000434  00000+0 -62618-5 0  9996
2 58475  43.0043 215.9952 0001206 269.1735  90.8979 15.27576618141321
STARLINK-30980          
1 58476U 23186D   26169.84255223  .00009610  00000+0  35830-3 0  9992
2 58476  43.0021 216.0202 0001308 268.4943  91.5759 15.27578043141322
STARLINK-30965          
1 58477U 23186E   26169.81350204  .00000897  00000+0  42115-4 0  9998
2 58477  43.0007 201.1053 0001679 285.9016  74.1651 15.27581361141495
STARLINK-30990          
1 58478U 23186F   26169.83227405  .00000279  00000+0  19644-4 0  9992
2 58478  43.0006 215.9453 0001190 263.7457  96.3259 15.27577378141362
STARLINK-30984          
1 58480U 23186H   26169.47113985  .00000185  00000+0  16261-4 0  9990
2 58480  42.9979 214.1203 0001344 272.5258  87.5440 15.27576430141311
STARLINK-30956          
1 58481U 23186J   26169.78665644  .00000409  00000+0  24404-4 0  9996
2 58481  43.0039 190.3373 0001633 275.4356  84.6310 15.27578213141614
STARLINK-30997          
1 58482U 23186K   26169.83147244  .00010371  00000+0  38564-3 0  9994
2 58482  43.0024 212.4990 0002365 268.8332  91.2248 15.27597342141363
